{
"type": "FeatureCollection",
"name": "ne110_borders",
"crs": { "type": "name", "properties": { "name": "urn:ogc:def:crs:OGC:1.3:CRS84" } },
"features": [
{ "type": "Feature", "properties": { }, "geometry": { "type": "LineString", "coordinates": [ [ -6.1979, 53.86758 ], [ -6.95373, 54.07372 ], [ -7.57215, 54.05997 ], [ -7.36601, 54.59582 ], [ -7.57215, 55.13163 ] ] } },
{ "type": "Feature", "properties": { }, "geometry": { "type": "LineString", "coordinates": [ [ 8.42096, 36.94642 ], [ 8.21781, 36.43318 ], [ 8.37634, 35.47988 ], [ 8.239390190239467, 35.0 ] ] } },
{ "type": "Feature", "properties": { }, "geometry": { "type": "LineString", "coordinates": [ [ -9.03483, 41.88057 ], [ -8.67193, 42.13468 ], [ -8.26387, 42.28046 ], [ -8.01317, 41.79087 ], [ -7.4225, 41.79207 ], [ -7.25131, 41.91835 ], [ -6.66859, 41.88338 ], [ -6.38908, 41.3818 ], [ -6.85111, 41.11109 ], [ -6.86402, 40.33086 ], [ -7.02643, 40.18454 ], [ -7.06659, 39.7119 ], [ -7.49865, 39.62956 ], [ -7.09801, 39.03007 ], [ -7.37408, 38.37305 ], [ -7.02928, 38.07575 ], [ -7.16652, 37.8039 ], [ -7.53711, 37.42892 ], [ -7.45373, 37.0978 ] ] } },
{ "type": "Feature", "properties": { }, "geometry": { "type": "LineString", "coordinates": [ [ 2.98597, 42.473 ], [ 1.82677, 42.34338 ], [ 0.70159, 42.79572 ], [ 0.33805, 42.57955 ], [ -1.50278, 43.03401 ], [ -1.90135, 43.4228 ] ] } },
{ "type": "Feature", "properties": { }, "geometry": { "type": "LineString", "coordinates": [ [ 9.9219, 54.98309 ], [ 9.28204, 54.83087 ], [ 8.52621, 54.96274 ] ] } },
{ "type": "Feature", "properties": { }, "geometry": { "type": "LineString", "coordinates": [ [ 6.18629, 49.46383 ], [ 6.65823, 49.20195 ], [ 8.09928, 49.01778 ], [ 7.59369, 48.33301 ], [ 7.46677, 47.62058 ] ] } },
{ "type": "Feature", "properties": { }, "geometry": { "type": "LineString", "coordinates": [ [ 14.11966, 53.75702 ], [ 14.3533, 53.24819 ], [ 14.07448, 52.98128 ], [ 14.43763, 52.62485 ], [ 14.685, 52.08996 ], [ 14.60707, 51.74519 ], [ 15.01697, 51.10668 ] ] } },
{ "type": "Feature", "properties": { }, "geometry": { "type": "LineString", "coordinates": [ [ 9.59423, 47.52507 ], [ 9.63293, 47.34759 ], [ 9.47998, 47.10282 ], [ 9.93248, 46.92073 ], [ 10.44271, 46.89355 ] ] } },
{ "type": "Feature", "properties": { }, "geometry": { "type": "LineString", "coordinates": [ [ 10.44271, 46.89355 ], [ 11.04856, 46.75135 ], [ 11.16484, 46.94159 ], [ 12.15308, 47.11539 ], [ 12.3765, 46.76756 ], [ 13.80648, 46.50929 ] ] } },
{ "type": "Feature", "properties": { }, "geometry": { "type": "LineString", "coordinates": [ [ 19.66064, 54.4261 ], [ 20.89224, 54.31253 ], [ 22.73109, 54.32755 ], [ 23.244, 54.22058 ], [ 23.48412, 53.9125 ], [ 23.52753, 53.47011 ], [ 23.80493, 53.08975 ], [ 23.7992, 52.6911 ], [ 23.1995, 52.48697 ], [ 23.50799, 52.02365 ], [ 23.52707, 51.57847 ], [ 24.02998, 50.70541 ], [ 23.92275, 50.42488 ], [ 23.4265, 50.3085 ], [ 22.51842, 49.47678 ], [ 22.7764, 49.0274 ], [ 21.6078, 49.4701 ], [ 20.88796, 49.32879 ], [ 20.41583, 49.43146 ], [ 19.82504, 49.21713 ], [ 19.3207, 49.57157 ], [ 18.90957, 49.43586 ], [ 18.39289, 49.98865 ], [ 17.64943, 50.04904 ], [ 17.55457, 50.36213 ], [ 16.86874, 50.47399 ], [ 16.71949, 50.21574 ], [ 16.17624, 50.42263 ], [ 16.23863, 50.69774 ], [ 15.49095, 50.78474 ], [ 15.01697, 51.10668 ] ] } },
{ "type": "Feature", "properties": { }, "geometry": { "type": "LineString", "coordinates": [ [ 24.31284, 57.79344 ], [ 25.16459, 57.97015 ], [ 26.46356, 57.47638 ], [ 27.28818, 57.47452 ] ] } },
{ "type": "Feature", "properties": { }, "geometry": { "type": "LineString", "coordinates": [ [ 27.98112, 59.47537 ], [ 28.1317, 59.30083 ], [ 27.42015, 58.72457 ], [ 27.7167, 57.79191 ], [ 27.28818, 57.47452 ] ] } },
{ "type": "Feature", "properties": { }, "geometry": { "type": "LineString", "coordinates": [ [ 28.17669, 56.16914 ], [ 29.22953, 55.91837 ], [ 29.37153, 55.6701 ], [ 29.89631, 55.78945 ], [ 30.87394, 55.55101 ], [ 30.97185, 55.08155 ], [ 30.75755, 54.81177 ], [ 31.38449, 54.15704 ], [ 31.79142, 53.97463 ], [ 31.73128, 53.79404 ], [ 32.40558, 53.61806 ], [ 32.69366, 53.35145 ], [ 32.30455, 53.13273 ], [ 31.49764, 53.16743 ], [ 31.30521, 53.074 ], [ 31.54, 52.74208 ], [ 31.78597, 52.10168 ] ] } },
{ "type": "Feature", "properties": { }, "geometry": { "type": "LineString", "coordinates": [ [ 6.90515, 53.48217 ], [ 7.09207, 53.14405 ], [ 6.84286, 52.22843 ], [ 6.58939, 51.85203 ], [ 5.98866, 51.85161 ], [ 6.156658012286957, 50.803752398005166 ] ] } },
{ "type": "Feature", "properties": { }, "geometry": { "type": "LineString", "coordinates": [ [ 6.15666, 50.80375 ], [ 6.04305, 50.12805 ] ] } },
{ "type": "Feature", "properties": { }, "geometry": { "type": "LineString", "coordinates": [ [ 6.04305, 50.12805 ], [ 6.24272, 49.90224 ], [ 6.18629, 49.46383 ] ] } },
{ "type": "Feature", "properties": { }, "geometry": { "type": "LineString", "coordinates": [ [ 21.26844, 55.19048 ], [ 22.31571, 55.01531 ], [ 22.75775, 54.85657 ], [ 22.65102, 54.58274 ], [ 22.73109, 54.32755 ] ] } },
{ "type": "Feature", "properties": { }, "geometry": { "type": "LineString", "coordinates": [ [ 21.05579, 56.03109 ], [ 22.20114, 56.33781 ], [ 23.87824, 56.27366 ], [ 24.8607, 56.37252 ], [ 25.00095, 56.16455 ], [ 25.53306, 56.10029 ], [ 26.49434, 55.6151 ] ] } },
{ "type": "Feature", "properties": { }, "geometry": { "type": "LineString", "coordinates": [ [ 18.85314, 49.49623 ], [ 18.555, 49.495 ], [ 18.4, 49.315 ], [ 18.1705, 49.2715 ], [ 18.105, 49.044 ], [ 17.9135, 48.9965 ], [ 17.8865, 48.9035 ], [ 17.545, 48.8 ], [ 17.102, 48.817 ], [ 16.9603, 48.59697 ] ] } },
{ "type": "Feature", "properties": { }, "geometry": { "type": "LineString", "coordinates": [ [ 16.9603, 48.59697 ], [ 16.88, 48.47 ], [ 16.97965, 48.1235 ] ] } },
{ "type": "Feature", "properties": { }, "geometry": { "type": "LineString", "coordinates": [ [ 22.08561, 48.42226 ], [ 22.64079, 48.15023 ], [ 22.71053, 47.88218 ], [ 22.09976, 47.67244 ], [ 21.62649, 46.99423 ], [ 21.02196, 46.31607 ], [ 20.2202, 46.12746 ], [ 19.59602, 46.17173 ], [ 18.45606, 45.75947 ], [ 17.63005, 45.95177 ], [ 16.56483, 46.50376 ], [ 16.37048, 46.84131 ], [ 16.20228, 46.85238 ] ] } },
{ "type": "Feature", "properties": { }, "geometry": { "type": "LineString", "coordinates": [ [ 18.45, 42.48 ], [ 18.56, 42.65 ], [ 17.6749, 43.02857 ], [ 17.2974, 43.44636 ], [ 16.45644, 44.04124 ], [ 15.75003, 44.81873 ], [ 15.95934, 45.23376 ], [ 16.31815, 45.00411 ], [ 16.53493, 45.21163 ], [ 17.00213, 45.23376 ], [ 17.86178, 45.06775 ], [ 18.55324, 45.08158 ], [ 19.00548, 44.86023 ] ] } },
{ "type": "Feature", "properties": { }, "geometry": { "type": "LineString", "coordinates": [ [ 22.55816, 49.08574 ], [ 22.28082, 48.82542 ], [ 22.08561, 48.42226 ], [ 21.87223, 48.31997 ], [ 20.8013, 48.62385 ], [ 20.47357, 48.56285 ], [ 20.23904, 48.32757 ], [ 18.77704, 48.08175 ], [ 18.69651, 47.88097 ], [ 17.85715, 47.75843 ], [ 16.97965, 48.1235 ] ] } },
{ "type": "Feature", "properties": { }, "geometry": { "type": "LineString", "coordinates": [ [ 16.56483, 46.50376 ], [ 15.76872, 46.23814 ], [ 15.67154, 45.83417 ], [ 15.32395, 45.7318 ], [ 15.32769, 45.45235 ], [ 14.93524, 45.47171 ], [ 14.59512, 45.63496 ], [ 14.41197, 45.46618 ], [ 13.71506, 45.50032 ] ] } },
{ "type": "Feature", "properties": { }, "geometry": { "type": "LineString", "coordinates": [ [ 26.61932, 48.22074 ], [ 26.92416, 48.12328 ], [ 28.12806, 46.81046 ], [ 28.16, 46.37156 ], [ 28.05442, 45.94458 ], [ 28.23353, 45.48827 ] ] } },
{ "type": "Feature", "properties": { }, "geometry": { "type": "LineString", "coordinates": [ [ 28.55808, 43.70748 ], [ 27.97013, 43.81247 ], [ 27.24237, 44.17599 ], [ 26.06514, 43.9435 ], [ 25.56929, 43.68843 ], [ 24.10071, 43.74104 ], [ 23.33229, 43.89701 ], [ 22.94485, 43.82377 ], [ 22.65712, 44.23492 ] ] } },
{ "type": "Feature", "properties": { }, "geometry": { "type": "LineString", "coordinates": [ [ 22.65712, 44.23492 ], [ 22.41044, 44.00804 ], [ 22.50014, 43.64281 ], [ 22.98603, 43.21118 ], [ 22.60479, 42.89852 ], [ 22.4366, 42.58033 ], [ 22.54499, 42.46136 ], [ 22.357008953169334, 42.319407193826166 ] ] } },
{ "type": "Feature", "properties": { }, "geometry": { "type": "LineString", "coordinates": [ [ 22.71053, 47.88218 ], [ 23.14223, 48.09633 ], [ 23.76098, 47.98559 ], [ 24.40203, 47.98188 ], [ 24.8663, 47.73753 ], [ 25.20775, 47.89106 ], [ 25.94593, 47.98717 ], [ 26.19743, 48.22087 ], [ 26.61932, 48.22074 ] ] } },
{ "type": "Feature", "properties": { }, "geometry": { "type": "MultiLineString", "coordinates": [ [ [ 31.78597, 52.10168 ], [ 32.15944, 52.06125 ], [ 32.41207, 52.28871 ], [ 32.71576, 52.23845 ], [ 33.75268, 52.33508 ], [ 34.39175, 51.76887 ], [ 34.14198, 51.56643 ], [ 34.22481, 51.25601 ], [ 35.0222, 51.20759 ], [ 35.37791, 50.77394 ], [ 35.35613, 50.5772 ], [ 36.62615, 50.22559 ], [ 37.39346, 50.38397 ], [ 38.01064, 49.91566 ], [ 38.59501, 49.92646 ], [ 40.0, 49.616291417338864 ] ], [ [ 40.0, 49.203280695819174 ], [ 39.67465, 48.78382 ], [ 39.89562, 48.23241 ], [ 39.73828, 47.89893 ], [ 38.77056, 47.82562 ], [ 38.25511, 47.54641 ], [ 38.22356, 47.10219 ] ] ] } },
{ "type": "Feature", "properties": { }, "geometry": { "type": "LineString", "coordinates": [ [ 27.99673, 42.00737 ], [ 27.13571, 42.14149 ], [ 26.11706, 41.82689 ], [ 26.10613, 41.32889 ], [ 25.1972, 41.23448 ], [ 24.49264, 41.5839 ], [ 23.69208, 41.30908 ], [ 22.95239, 41.33801 ], [ 22.88138, 41.99929 ], [ 22.38054, 42.32025 ] ] } },
{ "type": "Feature", "properties": { }, "geometry": { "type": "LineString", "coordinates": [ [ 22.95239, 41.33801 ], [ 22.76177, 41.3048 ], [ 22.59732, 41.13049 ], [ 22.05537, 41.14986 ], [ 21.67413, 40.93128 ], [ 21.02005, 40.84274 ] ] } },
{ "type": "Feature", "properties": { }, "geometry": { "type": "LineString", "coordinates": [ [ 26.11706, 41.82689 ], [ 26.60418, 41.56213 ], [ 26.29461, 40.93625 ], [ 26.0569, 40.82413 ] ] } },
{ "type": "Feature", "properties": { }, "geometry": { "type": "LineString", "coordinates": [ [ 21.02005, 40.84274 ], [ 21.0, 40.58 ], [ 20.675, 40.435 ], [ 20.615, 40.11 ], [ 20.15, 39.625 ] ] } },
{ "type": "Feature", "properties": { }, "geometry": { "type": "LineString", "coordinates": [ [ 39.955, 43.435 ], [ 40.0, 43.478579219288179 ] ] } },
{ "type": "Feature", "properties": { }, "geometry": { "type": "LineString", "coordinates": [ [ 28.59193, 69.06479 ], [ 28.44595, 68.36464 ], [ 29.97743, 67.69829 ], [ 29.0546, 66.94428 ], [ 30.21765, 65.80598 ], [ 29.54444, 64.94867 ], [ 30.4447, 64.20445 ], [ 30.03587, 63.55282 ], [ 31.5161, 62.86768 ], [ 31.14001, 62.35769 ], [ 28.07, 60.50352 ] ] } },
{ "type": "Feature", "properties": { }, "geometry": { "type": "LineString", "coordinates": [ [ 20.64559, 69.10625 ], [ 23.53949, 67.93601 ], [ 23.56587, 66.39607 ], [ 23.90337, 66.00692 ] ] } },
{ "type": "Feature", "properties": { }, "geometry": { "type": "LineString", "coordinates": [ [ 19.00548, 44.86023 ], [ 19.36803, 44.863 ], [ 19.11761, 44.42307 ], [ 19.59976, 44.03847 ], [ 19.454, 43.56811 ], [ 19.21852, 43.52384 ] ] } },
{ "type": "Feature", "properties": { }, "geometry": { "type": "LineString", "coordinates": [ [ 32.731780226377452, 35.140025946588437 ], [ 32.919572381326134, 35.087832749973643 ], [ 33.383833449036302, 35.16271190036457 ], [ 33.475817498515852, 35.000344550103506 ], [ 33.973616570783463, 35.058506374648005 ] ] } },
{ "type": "Feature", "properties": { }, "geometry": { "type": "LineString", "coordinates": [ [ 19.21852, 43.52384 ], [ 19.63, 43.213779970270537 ], [ 20.3398, 42.89852 ], [ 20.25758, 42.81275 ] ] } },
{ "type": "Feature", "properties": { }, "geometry": { "type": "LineString", "coordinates": [ [ 11.02737, 58.85617 ], [ 11.46824, 59.4324 ], [ 12.30039, 60.11794 ], [ 12.63116, 61.29359 ], [ 11.99206, 61.80037 ], [ 11.93056, 63.12832 ], [ 12.57993, 64.06625 ], [ 13.57193, 64.04912 ], [ 13.91991, 64.44543 ], [ 13.55569, 64.78703 ], [ 15.10842, 66.19387 ], [ 16.76889, 68.01393 ], [ 17.72916, 68.01055 ], [ 17.99386, 68.56741 ], [ 19.87857, 68.40721 ], [ 20.02523, 69.06514 ], [ 20.64559, 69.10625 ] ] } },
{ "type": "Feature", "properties": { }, "geometry": { "type": "LineString", "coordinates": [ [ 20.25758, 42.81275 ], [ 20.49679, 42.88469 ], [ 20.63508, 43.21671 ], [ 20.81448, 43.27205 ], [ 21.63302, 42.67717 ], [ 21.77505, 42.6827 ], [ 21.54332, 42.32025 ], [ 21.576635989402039, 42.245224397061719 ] ] } },
{ "type": "Feature", "properties": { }, "geometry": { "type": "LineString", "coordinates": [ [ -2.1699, 35.16841 ], [ -2.070797091178765, 35.0 ] ] } },
{ "type": "Feature", "properties": { }, "geometry": { "type": "LineString", "coordinates": [ [ 33.435988094713352, 45.971917370797442 ], [ 33.699461849109078, 46.21957283155632 ], [ 34.732017388278436, 45.965665731760573 ], [ 34.861792128174045, 45.768182431919435 ], [ 35.012658970047212, 45.737725199825434 ] ] } },
{ "type": "Feature", "properties": { }, "geometry": { "type": "LineString", "coordinates": [ [ 40.0, 36.871735436817268 ], [ 39.52255, 36.71605 ], [ 38.69985, 36.71293 ], [ 38.16774, 36.90121 ], [ 37.06675, 36.62304 ], [ 36.73948, 36.81752 ], [ 36.6854, 36.25969 ], [ 36.14976, 35.82155 ] ] } },
{ "type": "Feature", "properties": { }, "geometry": { "type": "LineString", "coordinates": [ [ 27.28818, 57.47452 ], [ 27.77004, 57.24424 ], [ 27.85529, 56.75931 ], [ 28.17669, 56.16914 ] ] } },
{ "type": "Feature", "properties": { }, "geometry": { "type": "LineString", "coordinates": [ [ 28.17669, 56.16914 ], [ 26.49434, 55.6151 ] ] } },
{ "type": "Feature", "properties": { }, "geometry": { "type": "LineString", "coordinates": [ [ 31.78597, 52.10168 ], [ 30.92758, 52.04234 ], [ 30.61948, 51.82282 ], [ 30.55511, 51.31949 ], [ 30.15737, 51.41614 ], [ 29.25494, 51.36823 ], [ 28.99283, 51.60205 ], [ 28.61761, 51.4277 ], [ 28.24163, 51.57223 ], [ 27.45409, 51.59229 ], [ 26.33797, 51.83227 ], [ 25.32782, 51.91067 ], [ 24.55312, 51.88848 ], [ 24.00509, 51.61744 ], [ 23.52707, 51.57847 ] ] } },
{ "type": "Feature", "properties": { }, "geometry": { "type": "LineString", "coordinates": [ [ 26.49434, 55.6151 ], [ 26.5883, 55.16717 ], [ 25.76843, 54.84696 ], [ 25.53637, 54.28243 ], [ 24.45067, 53.90569 ], [ 23.48412, 53.9125 ] ] } },
{ "type": "Feature", "properties": { }, "geometry": { "type": "MultiLineString", "coordinates": [ [ [ 20.64559, 69.10625 ], [ 21.24494, 69.37046 ], [ 22.35623, 68.84174 ], [ 23.66206, 68.89124 ], [ 24.73568, 68.64957 ], [ 25.68922, 69.09213 ], [ 26.1796, 69.82528 ], [ 26.980066191024143, 70.0 ] ], [ [ 28.262082455116939, 70.0 ], [ 29.01555, 69.76649 ], [ 28.59193, 69.06479 ] ] ] } },
{ "type": "Feature", "properties": { }, "geometry": { "type": "LineString", "coordinates": [ [ 28.59193, 69.06479 ], [ 29.39955, 69.15692 ], [ 31.10108, 69.55811 ] ] } },
{ "type": "Feature", "properties": { }, "geometry": { "type": "LineString", "coordinates": [ [ 26.61932, 48.22074 ], [ 26.85781, 48.36821 ], [ 27.52251, 48.46713 ], [ 28.25953, 48.15556 ], [ 28.67089, 48.11816 ], [ 29.12267, 47.8491 ], [ 29.05087, 47.51021 ], [ 29.41514, 47.34664 ], [ 29.55968, 46.92859 ], [ 29.90884, 46.67438 ], [ 29.83824, 46.52534 ], [ 30.02464, 46.42395 ], [ 29.76, 46.35 ], [ 29.17064, 46.37926 ], [ 29.07208, 46.51768 ], [ 28.863, 46.43788 ], [ 28.93373, 46.25885 ], [ 28.48527, 45.59691 ], [ 28.23353, 45.48827 ] ] } },
{ "type": "Feature", "properties": { }, "geometry": { "type": "LineString", "coordinates": [ [ 28.23353, 45.48827 ], [ 28.67978, 45.30403 ], [ 29.14971, 45.46492 ], [ 29.60326, 45.29332 ] ] } },
{ "type": "Feature", "properties": { }, "geometry": { "type": "LineString", "coordinates": [ [ 22.65712, 44.23492 ], [ 22.47398, 44.40923 ], [ 22.70571, 44.57801 ], [ 22.45903, 44.70252 ], [ 22.14507, 44.47841 ], [ 21.562, 44.76893 ], [ 21.48351, 45.18119 ], [ 20.87428, 45.41638 ], [ 20.76216, 45.73457 ], [ 20.2202, 46.12746 ] ] } },
{ "type": "Feature", "properties": { }, "geometry": { "type": "LineString", "coordinates": [ [ 21.02005, 40.84274 ], [ 20.60518, 41.08622 ], [ 20.46315, 41.51509 ], [ 20.59023, 41.85541 ] ] } },
{ "type": "Feature", "properties": { }, "geometry": { "type": "LineString", "coordinates": [ [ 21.57663598940205, 42.245224397061719 ], [ 20.76216, 42.05186 ], [ 20.7173, 41.84711 ], [ 20.59023, 41.85541 ] ] } },
{ "type": "Feature", "properties": { }, "geometry": { "type": "LineString", "coordinates": [ [ 20.59023, 41.85541 ], [ 20.52295, 42.21787 ], [ 20.28374, 42.32025 ], [ 20.0707, 42.58863 ] ] } },
{ "type": "Feature", "properties": { }, "geometry": { "type": "LineString", "coordinates": [ [ 20.0707, 42.58863 ], [ 19.80159, 42.5001 ], [ 19.73805, 42.68824 ], [ 19.30449, 42.19574 ], [ 19.37177, 41.87755 ] ] } },
{ "type": "Feature", "properties": { }, "geometry": { "type": "LineString", "coordinates": [ [ 22.357008953169334, 42.319407193826166 ], [ 21.57663598940205, 42.245224397061719 ] ] } },
{ "type": "Feature", "properties": { }, "geometry": { "type": "LineString", "coordinates": [ [ 20.25758, 42.81275 ], [ 20.0707, 42.58863 ] ] } },
{ "type": "Feature", "properties": { }, "geometry": { "type": "LineString", "coordinates": [ [ 19.21852, 43.52384 ], [ 18.70648, 43.20011 ], [ 18.56, 42.65 ] ] } },
{ "type": "Feature", "properties": { }, "geometry": { "type": "LineString", "coordinates": [ [ 19.00548, 44.86023 ], [ 19.39046, 45.23653 ], [ 19.07276, 45.52152 ], [ 18.82982, 45.90888 ] ] } },
{ "type": "Feature", "properties": { }, "geometry": { "type": "LineString", "coordinates": [ [ 15.01697, 51.10668 ], [ 14.57075, 51.00234 ], [ 14.307, 51.11727 ], [ 14.05623, 50.92691 ], [ 13.3381, 50.73323 ], [ 12.96684, 50.48408 ], [ 12.2401, 50.26632 ], [ 12.41519, 49.96912 ], [ 12.52105, 49.5474 ], [ 13.03131, 49.30705 ], [ 13.59594, 48.87717 ] ] } },
{ "type": "Feature", "properties": { }, "geometry": { "type": "LineString", "coordinates": [ [ 13.59594, 48.87717 ], [ 13.24333, 48.4161 ], [ 12.88411, 48.28917 ], [ 13.02586, 47.63758 ], [ 12.93264, 47.46763 ], [ 12.62076, 47.67239 ], [ 12.14136, 47.70307 ], [ 11.42644, 47.52378 ], [ 10.54449, 47.56639 ], [ 10.40207, 47.30247 ], [ 9.89607, 47.58022 ], [ 9.59423, 47.52507 ] ] } },
{ "type": "Feature", "properties": { }, "geometry": { "type": "LineString", "coordinates": [ [ 9.59423, 47.52507 ], [ 8.52258, 47.83082 ], [ 8.3173, 47.61359 ], [ 7.46677, 47.62058 ] ] } },
{ "type": "Feature", "properties": { }, "geometry": { "type": "LineString", "coordinates": [ [ 16.9603, 48.59697 ], [ 16.4993, 48.78581 ], [ 16.02965, 48.7339 ], [ 15.25341, 49.03908 ], [ 14.90144, 48.96439 ], [ 14.33888, 48.5553 ], [ 13.59594, 48.87717 ] ] } },
{ "type": "Feature", "properties": { }, "geometry": { "type": "LineString", "coordinates": [ [ 16.97965, 48.1235 ], [ 16.90376, 47.71487 ], [ 16.34058, 47.7129 ], [ 16.53427, 47.49616 ], [ 16.20228, 46.85238 ] ] } },
{ "type": "Feature", "properties": { }, "geometry": { "type": "LineString", "coordinates": [ [ 16.20228, 46.85238 ], [ 16.01167, 46.6836 ], [ 15.13707, 46.6587 ], [ 14.63249, 46.43182 ], [ 13.80648, 46.50929 ] ] } },
{ "type": "Feature", "properties": { }, "geometry": { "type": "LineString", "coordinates": [ [ 13.80648, 46.50929 ], [ 13.69809, 46.01679 ], [ 13.93764, 45.59103 ] ] } },
{ "type": "Feature", "properties": { }, "geometry": { "type": "LineString", "coordinates": [ [ 10.44271, 46.89355 ], [ 10.36339, 46.48358 ], [ 9.92284, 46.31491 ], [ 9.18289, 46.44021 ], [ 8.9663, 46.03696 ], [ 8.48995, 46.00517 ], [ 8.31664, 46.16368 ], [ 7.75599, 45.82452 ], [ 7.27385, 45.77693 ], [ 6.8436, 45.99114 ] ] } },
{ "type": "Feature", "properties": { }, "geometry": { "type": "LineString", "coordinates": [ [ 7.46677, 47.62058 ], [ 7.19222, 47.44975 ], [ 6.73658, 47.54182 ], [ 6.76873, 47.2877 ], [ 6.03739, 46.72576 ], [ 6.02258, 46.27298 ], [ 6.50008, 46.42967 ], [ 6.8436, 45.99114 ] ] } },
{ "type": "Feature", "properties": { }, "geometry": { "type": "LineString", "coordinates": [ [ 6.8436, 45.99114 ], [ 6.80234, 45.70861 ], [ 7.09666, 45.33309 ], [ 6.74997, 45.02855 ], [ 7.00757, 44.25476 ], [ 7.54958, 44.12791 ], [ 7.43519, 43.69385 ] ] } },
{ "type": "Feature", "properties": { }, "geometry": { "type": "LineString", "coordinates": [ [ 6.04305, 50.12805 ], [ 5.78239, 50.09033 ], [ 5.67404, 49.52948 ] ] } },
{ "type": "Feature", "properties": { }, "geometry": { "type": "LineString", "coordinates": [ [ 5.67404, 49.52948 ], [ 4.7992, 49.9854 ], [ 4.28603, 49.90752 ], [ 3.12326, 50.78036 ], [ 2.6584, 50.79683 ], [ 2.5136, 51.14851 ] ] } },
{ "type": "Feature", "properties": { }, "geometry": { "type": "LineString", "coordinates": [ [ 6.156658012286957, 50.803752398005166 ], [ 5.60695, 51.03731 ], [ 4.97397, 51.47502 ], [ 4.04709, 51.26726 ], [ 3.31495, 51.34577 ] ] } },
{ "type": "Feature", "properties": { }, "geometry": { "type": "LineString", "coordinates": [ [ 6.18629, 49.46383 ], [ 5.89774, 49.44268 ], [ 5.67404, 49.52948 ] ] } },
{ "type": "Feature", "properties": { }, "geometry": { "type": "LineString", "coordinates": [ [ 36.702490111082625, 45.614649805447101 ], [ 36.57900367899763, 45.195609897666387 ], [ 36.640746895040124, 44.948520579976353 ] ] } }
]
}
