{
"type": "FeatureCollection",
"name": "ne110_coast",
"crs": { "type": "name", "properties": { "name": "urn:ogc:def:crs:OGC:1.3:CRS84" } },
"features": [
{ "type": "Feature", "properties": { }, "geometry": { "type": "LineString", "coordinates": [ [ -6.197884894220991, 53.867565009163364 ], [ -6.032985398777611, 53.153190009160497 ], [ -6.788856573910849, 52.260117906292336 ], [ -8.561616583683559, 51.669301255899356 ], [ -9.977085740590269, 51.820454820353078 ], [ -9.166282517930782, 52.864628811242682 ], [ -9.688524542672454, 53.881362616585299 ], [ -7.572167934591064, 55.131622219454869 ], [ -6.733847011736145, 55.172860012423783 ], [ -5.661948614921968, 54.554603176483809 ], [ -6.197884894220991, 53.867565009163364 ] ] } },
{ "type": "Feature", "properties": { }, "geometry": { "type": "MultiLineString", "coordinates": [ [ [ 32.946960890440806, 35.386703396133697 ], [ 33.667227003724946, 35.373215847305516 ], [ 34.576473829900465, 35.671595567358793 ], [ 33.900804477684204, 35.245781765273762 ], [ 33.996365187194122, 35.0 ] ], [ [ 32.31672544651002, 35.0 ], [ 32.25666710788596, 35.103232326796629 ], [ 32.80247358575275, 35.145503648411378 ], [ 32.946960890440806, 35.386703396133697 ] ] ] } },
{ "type": "Feature", "properties": { }, "geometry": { "type": "MultiLineString", "coordinates": [ [ [ 26.290002882601698, 35.299990342747932 ], [ 26.164997592887659, 35.004995429009767 ], [ 26.080375936482685, 35.0 ] ], [ [ 24.729843510726674, 35.0 ], [ 24.735007358506916, 35.084990546197588 ], [ 23.514978468528081, 35.279991563450977 ], [ 23.699980096133004, 35.70500438083549 ], [ 24.246665073348705, 35.368022365860185 ], [ 25.025015496528908, 35.424995632461972 ], [ 25.769207797964185, 35.35401805270908 ], [ 25.745023227651586, 35.179997666966202 ], [ 26.290002882601698, 35.299990342747932 ] ] ] } },
{ "type": "Feature", "properties": { }, "geometry": { "type": "LineString", "coordinates": [ [ 8.709990675500109, 40.899984442705225 ], [ 9.210011834356266, 41.209991360024176 ], [ 9.80997521326492, 40.500008856766129 ], [ 9.669518670295616, 39.17737641047178 ], [ 9.214817742559433, 39.240473334300148 ], [ 8.806935662479674, 38.906617743478506 ], [ 8.428302443077115, 39.171847032216547 ], [ 8.388253208050912, 40.378310858718763 ], [ 8.159998406617689, 40.950007229163759 ], [ 8.709990675500109, 40.899984442705225 ] ] } },
{ "type": "Feature", "properties": { }, "geometry": { "type": "LineString", "coordinates": [ [ 8.746009148807559, 42.628121853193917 ], [ 9.390000848028876, 43.00998484961471 ], [ 9.560016310269134, 42.152517808595654 ], [ 9.229752231491773, 41.380006822264455 ], [ 8.775723097375362, 41.583611965494427 ], [ 8.544212680707773, 42.256542466799203 ], [ 8.746009148807559, 42.628121853193917 ] ] } },
{ "type": "Feature", "properties": { }, "geometry": { "type": "LineString", "coordinates": [ [ 12.370904168353292, 56.111407375708794 ], [ 12.690006137755603, 55.609990953180741 ], [ 12.089991082414684, 54.800014553437919 ], [ 11.043543328504226, 55.36486379660424 ], [ 10.903913608451603, 55.779954738988721 ], [ 12.370904168353292, 56.111407375708794 ] ] } },
{ "type": "Feature", "properties": { }, "geometry": { "type": "LineString", "coordinates": [ [ -4.211494513353671, 58.550845038478968 ], [ -3.005004848635309, 58.635000108466286 ], [ -4.073828497728101, 57.553024807355186 ], [ -3.05500179687769, 57.690019029360947 ], [ -1.959280564776947, 57.684799709699462 ], [ -2.219988165689443, 56.870017401753486 ], [ -3.119003058271176, 55.973793036515531 ], [ -2.08500932454308, 55.909998480851215 ], [ -1.114991013992324, 54.624986477265338 ], [ -0.430484991854172, 54.464376125702202 ], [ 0.46997684083172, 52.92999949809191 ], [ 1.68153079591471, 52.73952016866405 ], [ 1.559987827164207, 52.099998480835978 ], [ 1.050561557630942, 51.806760565795742 ], [ 1.449865349950244, 51.289427802121793 ], [ 0.550333693045587, 50.765738837275947 ], [ -0.787517462558725, 50.774988918656192 ], [ -2.489997524414491, 50.500018622431128 ], [ -2.956273972984065, 50.69687999124703 ], [ -3.617448085942442, 50.228355617872744 ], [ -4.542507900399272, 50.341837063185707 ], [ -5.245023159191136, 49.959999904981061 ], [ -5.776566941745344, 50.159677639356858 ], [ -4.30998979330198, 51.210001125689189 ], [ -3.414850633142152, 51.426008612669207 ], [ -4.984367234710916, 51.593466091511033 ], [ -5.267295701508927, 51.991400458374599 ], [ -4.222346564134966, 52.301355699261251 ], [ -4.770013393564227, 52.840004991255597 ], [ -4.579999152027, 53.495003770555094 ], [ -3.092079637047106, 53.404440822963593 ], [ -2.945008510744429, 53.984999701546641 ], [ -3.630005458989359, 54.615012925833014 ], [ -4.844169073903061, 54.790971177786844 ], [ -5.082526617849339, 55.061600653699386 ], [ -4.719112107756729, 55.508472601943353 ], [ -5.047980922862223, 55.783985500707487 ], [ -5.586397670911253, 55.311146145236833 ], [ -5.644998745130239, 56.275014960344862 ], [ -6.149980841486425, 56.78500967063335 ], [ -5.786824713555276, 57.818848375064576 ], [ -5.009998745127689, 58.63001333275011 ], [ -4.211494513353671, 58.550845038478968 ] ] } },
{ "type": "Feature", "properties": { }, "geometry": { "type": "MultiLineString", "coordinates": [ [ [ -14.508695441129234, 66.455892239031428 ], [ -14.739637417041607, 65.808748277440301 ], [ -13.60973222497981, 65.126671047619865 ], [ -15.0, 64.342659970344172 ] ], [ [ -15.0, 66.476895026891953 ], [ -14.508695441129234, 66.455892239031428 ] ] ] } },
{ "type": "Feature", "properties": { }, "geometry": { "type": "LineString", "coordinates": [ [ 14.761249220446189, 38.143873602850462 ], [ 15.520324334381513, 38.231180935207576 ], [ 15.160242954171736, 37.444045518537763 ], [ 15.309897902089006, 37.134219468731828 ], [ 15.099988234119422, 36.619987290995397 ], [ 14.335228712631988, 36.996630967754726 ], [ 13.826732618879959, 37.104531358380157 ], [ 12.431003859108756, 37.612949937483748 ], [ 12.570943637755136, 38.126381130519661 ], [ 13.741156447004613, 38.034965521795328 ], [ 14.761249220446189, 38.143873602850462 ] ] } },
{ "type": "Feature", "properties": { }, "geometry": { "type": "LineString", "coordinates": [ [ 37.539135369625853, 44.657222805350479 ], [ 38.679995965333546, 44.279984849619794 ], [ 39.955008579270924, 43.434997666999223 ] ] } },
{ "type": "Feature", "properties": { }, "geometry": { "type": "MultiLineString", "coordinates": [ [ [ -6.338478178768812, 35.0 ], [ -5.929994269219918, 35.759988104794047 ], [ -5.193863491222174, 35.755182196590894 ], [ -4.591006232105173, 35.330711981745452 ], [ -3.640056525070122, 35.399855048151977 ], [ -2.604305792644113, 35.179093329401098 ], [ -2.169913702798624, 35.16839630791668 ], [ -1.208602871089056, 35.714848741187097 ], [ -0.127454392894606, 35.888662421200806 ], [ 0.503876580415209, 36.301272894835279 ], [ 1.466918572606545, 36.605647081034405 ], [ 4.81575809084913, 36.865036932923459 ], [ 5.320120070017794, 36.716518866516623 ], [ 6.261819695672613, 37.110655015606739 ], [ 7.330384962603971, 37.118380642234371 ], [ 7.737078484741005, 36.885707505840216 ], [ 8.420964389691676, 36.946427313783161 ], [ 9.509993523810607, 37.349994411766545 ], [ 10.210002475636317, 37.230001735984814 ], [ 10.180650262094531, 36.724037787415085 ], [ 11.02886722173335, 37.092103176413957 ], [ 11.100025668999251, 36.899996039368915 ], [ 10.600004510143094, 36.410000108377375 ], [ 10.593286573945138, 35.947444362932814 ], [ 10.939518670300687, 35.698984076473494 ], [ 10.833176932370533, 35.0 ] ], [ [ 35.955064570912306, 35.0 ], [ 35.905023227692226, 35.410009467097325 ], [ 36.149762811026534, 35.821534735653671 ], [ 35.782084995269855, 36.274995429014851 ], [ 36.160821567536999, 36.650605577128331 ], [ 35.550936313628313, 36.565442816711325 ], [ 34.714553256984345, 36.795532131490901 ], [ 34.026894972476384, 36.219960028624016 ], [ 32.509158156064075, 36.107563788389186 ], [ 31.699595167779567, 36.64427521417258 ], [ 30.621624790171097, 36.677864895162301 ], [ 30.391096225717064, 36.26298065850699 ], [ 29.699975620245539, 36.144357408180994 ], [ 28.732902866335422, 36.676831366516467 ], [ 27.641186557737317, 36.658822129862742 ], [ 27.048767937943264, 37.653360907535998 ], [ 26.318218214633045, 38.208133246405396 ], [ 26.804700148228733, 38.985760199533516 ], [ 26.170785353304328, 39.463612168936464 ], [ 27.280019972449391, 40.420013739578309 ], [ 28.81997765474722, 40.460011298172212 ], [ 29.240003696415584, 41.219990749672668 ], [ 31.145933872204441, 41.087621568357022 ], [ 32.347979363745708, 41.736264146484615 ], [ 33.513282911927462, 42.018960069337311 ], [ 35.167703891751785, 42.040224921225416 ], [ 36.913127068842101, 41.33535838476427 ], [ 38.347664829264517, 40.948586127275732 ], [ 39.512606642420195, 41.102762763018553 ], [ 40.0, 41.05232056416709 ] ], [ [ 40.0, 43.397376843615255 ], [ 38.679995965333546, 44.279984849619794 ], [ 37.539135369625853, 44.657222805350479 ], [ 36.67546715673177, 45.244680487644487 ], [ 37.403174676265934, 45.404515692723251 ], [ 38.232943149576556, 46.240872911151072 ], [ 37.673700799313906, 46.636585191426093 ], [ 39.147667677574987, 47.044725653667314 ], [ 39.121209344241549, 47.263368638694232 ], [ 37.425137159989987, 47.022220567404204 ], [ 36.75985477066439, 46.698700263040934 ], [ 35.823684523264831, 46.645964463887069 ], [ 34.962341749823878, 46.273196519549643 ], [ 35.020787794745985, 45.651218980484657 ], [ 35.510008579253167, 45.409993394546191 ], [ 36.529997999830158, 45.469989732437057 ], [ 36.33471276219916, 45.113215643893966 ], [ 35.239999220528119, 44.939996242851606 ], [ 33.882511020652885, 44.361478583344073 ], [ 33.326420932760044, 44.564877020844889 ], [ 33.546924269349461, 45.03477081967489 ], [ 32.454174432105503, 45.327466132176077 ], [ 32.630804477679135, 45.519185695978912 ], [ 33.588162062318389, 45.851568508480241 ], [ 33.298567335754711, 46.080598456397844 ], [ 31.744140252415178, 46.333347886737386 ], [ 31.675307244602408, 46.706245022155542 ], [ 30.748748813609101, 46.583100084004002 ], [ 30.377608676888883, 46.03241018328567 ], [ 29.603289015427436, 45.293308010431126 ], [ 29.626543409958771, 45.035390936862399 ], [ 29.141611769331835, 44.820210272799045 ], [ 28.8378577003202, 44.913873806328056 ], [ 28.558081495891997, 43.707461656258133 ], [ 28.039095086384719, 43.293171698574184 ], [ 27.673897739378049, 42.577892361006221 ], [ 27.99672041190539, 42.007358710287789 ], [ 28.115524529744416, 41.622886054036243 ], [ 28.988442824018733, 41.299934190428189 ], [ 28.806438429486743, 41.054962063148558 ], [ 27.619017368284091, 40.999823309893138 ], [ 26.35800906749779, 40.151993923496505 ], [ 26.04335127127257, 40.617753607743168 ], [ 26.056942172965339, 40.824123440100763 ], [ 24.925848422960826, 40.947061672523134 ], [ 23.714811232200759, 40.687129218095009 ], [ 24.407998894963953, 40.124992987624012 ], [ 23.899967889102555, 39.962005520175438 ], [ 23.342999301860743, 39.96099782974575 ], [ 22.81398766448882, 40.476005153966554 ], [ 22.626298862404749, 40.256561184239118 ], [ 22.849747755634809, 39.659310818025787 ], [ 23.350027296652428, 39.190011298167136 ], [ 22.97309939951549, 38.9709032252496 ], [ 23.53001631032501, 38.510001125638382 ], [ 24.025024855248891, 38.219992987616379 ], [ 24.040011020613516, 37.655014553369327 ], [ 23.115002882588982, 37.920011298162066 ], [ 23.409971958110987, 37.40999074965741 ], [ 22.774971958108466, 37.305010077456473 ], [ 23.154225294698506, 36.422505804992014 ], [ 22.490028110451075, 36.410000108377375 ], [ 21.67002648284361, 36.844986477194212 ], [ 21.295010613701493, 37.64498932550471 ], [ 21.120034213961219, 38.310323391262585 ], [ 20.2177120297128, 39.340234686839622 ], [ 20.150015903410463, 39.624997666983987 ], [ 19.980000441170205, 39.694993394523323 ], [ 19.960001661873235, 39.915005805005976 ], [ 19.406081984136648, 40.250773423822423 ], [ 19.319058872157143, 40.727230129553504 ], [ 19.403549838954348, 41.409565741535388 ], [ 19.540027296637192, 41.719986070312672 ], [ 19.162479282312745, 41.955010484376118 ], [ 18.882134637129354, 42.281502183596174 ], [ 17.509970330483242, 42.849994615239069 ], [ 16.930005730871528, 43.209998480800401 ], [ 16.015384555737654, 43.507215481127119 ], [ 15.174453973052012, 44.243191229827985 ], [ 15.376250441151768, 44.317915350922036 ], [ 14.920309279040566, 44.738483995129442 ], [ 14.901602410550908, 45.076060289076096 ], [ 14.258747592840024, 45.233776760430899 ], [ 13.95225467291692, 44.802123521496881 ], [ 13.656975538801165, 45.136935126315933 ], [ 13.679403110415819, 45.484149074885018 ], [ 13.937630242578308, 45.591015936864622 ], [ 13.141606479554296, 45.736691799495418 ], [ 12.328581170306251, 45.381778062514826 ], [ 12.383874952858548, 44.885374253919096 ], [ 12.261453484759102, 44.600482082693986 ], [ 12.589237094786455, 44.091365871754462 ], [ 13.526905958722494, 43.587727362637864 ], [ 14.029820997787029, 42.761007798832466 ], [ 15.142569614327925, 41.955139675456849 ], [ 15.926191033601896, 41.961315009115715 ], [ 16.169897088290384, 41.740294908203389 ], [ 15.889345737377797, 41.541082261718216 ], [ 17.51916873543118, 40.877143459632222 ], [ 18.376687452882521, 40.35562490494263 ], [ 18.480247023195432, 40.168866278639811 ], [ 18.293385044028042, 39.810774441073264 ], [ 17.738380161213314, 40.277671006830346 ], [ 16.869595981522338, 40.44223460546381 ], [ 16.448743116937322, 39.795400702466438 ], [ 17.17148969897147, 39.424699815420681 ], [ 17.052840610429314, 38.902871202137348 ], [ 16.635088331781816, 38.843572496082416 ], [ 16.100960727613, 37.985898749334197 ], [ 15.684086948314473, 37.908849188787016 ], [ 15.687962680736348, 38.214592800441878 ], [ 15.89198123542468, 38.75094249119924 ], [ 16.109332309644287, 38.964547024077703 ], [ 15.413612501698793, 40.048356838535156 ], [ 14.99849572109818, 40.17294871679087 ], [ 14.703268263414714, 40.604550279292596 ], [ 14.060671827865264, 40.786347968095399 ], [ 13.627985060285397, 41.1882872584616 ], [ 12.888081902730365, 41.253089504555604 ], [ 12.106682570044939, 41.704534817057407 ], [ 10.511947869517741, 42.93146251074721 ], [ 10.200028924203991, 43.920006822274601 ], [ 9.702488234097842, 44.03627879493132 ], [ 8.888946160526871, 44.366336167979512 ], [ 8.428560825238577, 44.231228135752417 ], [ 7.850766635783144, 43.767147935555244 ], [ 7.435184767291872, 43.693844916349221 ], [ 6.52924523278304, 43.128892320318315 ], [ 4.556962517931424, 43.399650987311595 ], [ 3.100410597352663, 43.075200507167054 ], [ 2.985998976258458, 42.473015041669861 ], [ 3.039484083680549, 41.892120266276905 ], [ 2.091841668312185, 41.226088568683096 ], [ 0.810524529635188, 41.014731960609339 ], [ 0.721331007499401, 40.678318386389236 ], [ 0.106691521819869, 40.123933620762017 ], [ -0.278711310212941, 39.30997813573272 ], [ 0.111290724293838, 38.73851430923304 ], [ -0.467123582349103, 38.292365831041153 ], [ -0.683389451490598, 37.642353827457825 ], [ -1.438382127274849, 37.443063666324221 ], [ -2.146452602538119, 36.674144192037289 ], [ -4.368900926114719, 36.677839056946155 ], [ -4.995219285492212, 36.324708156879637 ], [ -5.377159796561457, 35.946850083961465 ], [ -5.866432257500904, 36.029816596006057 ], [ -6.236693894872175, 36.367677110330334 ], [ -6.520190802425404, 36.942913316387319 ], [ -7.453725551778092, 37.097787583966067 ], [ -7.855613165711986, 36.838268540996268 ], [ -8.382816127953689, 36.978880113262463 ], [ -8.898856980820328, 36.868809312480778 ], [ -8.746101446965556, 37.651345526676607 ], [ -8.83999752443988, 38.266243394517616 ], [ -9.287463751655224, 38.358485826158599 ], [ -9.526570603869713, 38.737429104154913 ], [ -9.446988898140235, 39.39206614842837 ], [ -9.048305223008427, 39.755093085278773 ], [ -8.768684047877102, 40.760638943030187 ], [ -8.79085323733031, 41.184334011391257 ], [ -8.990789353867569, 41.543459377603639 ], [ -9.034817674180246, 41.880570583659676 ], [ -8.984433152695674, 42.592775173506269 ], [ -9.392883673530648, 43.026624660812701 ], [ -7.97818966310831, 43.748337714200993 ], [ -6.754491746436756, 43.567909450853925 ], [ -5.411886359061597, 43.574239813809683 ], [ -4.347842779955783, 43.403449205085039 ], [ -1.901351284177764, 43.422802028978339 ], [ -1.384225226232985, 44.022610378590116 ], [ -1.193797573237418, 46.014917710954862 ], [ -2.225724249673845, 47.064362697938222 ], [ -2.963276129559603, 47.570326646507951 ], [ -4.491554938159482, 47.954954332056374 ], [ -4.592349819344776, 48.68416046812699 ], [ -3.295813971357803, 48.901692409859628 ], [ -1.616510789384961, 48.644421291694542 ], [ -1.933494025063311, 49.776341864615745 ], [ -0.98946895995536, 49.347375800160911 ], [ 1.338761020522696, 50.127173163445264 ], [ 1.6390010921385, 50.9466063502975 ], [ 3.314971144228537, 51.345780951536092 ], [ 3.830288527043081, 51.620544542031958 ], [ 4.705997348661185, 53.09179840759775 ], [ 6.07418257002081, 53.510403347378073 ], [ 6.905139601274129, 53.482162177130562 ], [ 7.100424838905127, 53.693932196662658 ], [ 7.936239454793877, 53.748295803433706 ], [ 8.121706170289428, 53.527792466844296 ], [ 8.80073449060464, 54.020785630908762 ], [ 8.572117954145398, 54.395646470754016 ], [ 8.526229282270208, 54.96274363872503 ], [ 8.120310906617533, 55.517722683323598 ], [ 8.089976840862221, 56.540011705137587 ], [ 8.543437534223415, 57.110002753316948 ], [ 9.424469028367554, 57.172066148499503 ], [ 9.775558709358535, 57.447940782289663 ], [ 10.580005730846125, 57.73001658795485 ], [ 10.546105991262664, 57.215732733786119 ], [ 10.250000034230226, 56.890016181050441 ], [ 10.369992710011957, 56.609981594460791 ], [ 10.912181837618306, 56.458621324277885 ], [ 10.667803989310016, 56.081383368547208 ], [ 10.369992710011957, 56.190007229224733 ], [ 9.649984978889279, 55.469999498102055 ], [ 9.921906365609118, 54.983104153048032 ], [ 9.939579705452957, 54.596641954153256 ], [ 10.950112338920519, 54.363607082733054 ], [ 10.939466993868393, 54.008693345752469 ], [ 11.956252475643311, 54.196485500701129 ], [ 12.518440382546601, 54.470370591848052 ], [ 13.647467075259442, 54.075510972705857 ], [ 14.119686313542587, 53.75702912049104 ], [ 14.802900424873458, 54.050706285205749 ], [ 17.622831658608675, 54.851535956432912 ], [ 18.620858595461641, 54.682605699270781 ], [ 18.696254510175464, 54.43871877706929 ], [ 19.660640089606403, 54.426083889373928 ], [ 19.888481479581287, 54.866160386771512 ], [ 21.268448927503467, 55.190481675835315 ], [ 21.055800408622417, 56.031076361711065 ], [ 21.090423618257972, 56.783872789122938 ], [ 21.581866489353672, 57.411870632549935 ], [ 22.524341261492879, 57.753374335350763 ], [ 23.318452996522097, 57.006236477274868 ], [ 24.120729607853431, 57.025692654032767 ], [ 24.428927850042161, 58.383413397853289 ], [ 24.061198357853186, 58.257374579493408 ], [ 23.426560092876684, 58.612753404364625 ], [ 23.339795363058645, 59.187240302153384 ], [ 24.604214308376186, 59.465853786855021 ], [ 25.864189080516638, 59.611090399811332 ], [ 26.949135776484525, 59.445803331125774 ], [ 27.981114129353244, 59.475388088612874 ], [ 29.117685581180694, 60.028067531974457 ], [ 28.069997592895277, 60.503516547275837 ], [ 26.255172967236973, 60.423960679762502 ], [ 24.496623976344523, 60.057316392651657 ], [ 22.869694858499457, 59.846373196036225 ], [ 22.290763787533592, 60.391921291741539 ], [ 21.322244093519316, 60.720169989659524 ], [ 21.544866163832694, 61.705329494871791 ], [ 21.059211053153689, 62.60739329695874 ], [ 21.536029493910803, 63.18973501245587 ], [ 22.442744174903993, 63.817810370531291 ], [ 24.730511508897536, 64.902343655040838 ], [ 25.398067661243942, 65.111426500093742 ], [ 25.294043003040404, 65.534346421970454 ], [ 23.903378533633802, 66.006927395279618 ], [ 22.18317345550193, 65.723740546320172 ], [ 21.21351687997722, 65.026005357515274 ], [ 21.369631381930958, 64.413587958424287 ], [ 17.847779168375212, 62.74940013289681 ], [ 17.119554884518124, 61.341165676510968 ], [ 17.831346062906391, 60.636583360427409 ], [ 18.787721795332089, 60.081914374422595 ], [ 17.86922488777634, 58.953766181058697 ], [ 16.829185011470088, 58.719826972073392 ], [ 16.447709588291474, 57.041118069071885 ], [ 15.879785597403783, 56.104301866268663 ], [ 14.666681349352075, 56.200885118222175 ], [ 14.100721062891465, 55.407781073622651 ], [ 12.942910597392057, 55.361737372450577 ], [ 12.625100538797028, 56.30708018658197 ], [ 11.787942335668674, 57.441817125063068 ], [ 11.027368605196868, 58.856149400459358 ], [ 10.356556837616067, 59.469807033925356 ], [ 8.382000359743586, 58.313288479233215 ], [ 7.048748406613271, 58.078884182357285 ], [ 5.665835402050419, 58.588155422593701 ], [ 5.308234490590678, 59.663231919993834 ], [ 4.992078077828978, 61.970998033284317 ], [ 5.912900424837886, 62.614472968182724 ], [ 8.553411085655739, 63.45400828719648 ], [ 10.527709181366758, 64.486038316497499 ], [ 14.761145867581604, 67.810641587995164 ], [ 19.184028354578459, 69.817444159617779 ], [ 20.099210599545174, 70.0 ] ], [ [ 30.33030012205862, 70.0 ], [ 31.101078728975097, 69.558080145944885 ], [ 32.132747023250062, 69.905965888133764 ], [ 33.77548912937641, 69.301403306751141 ], [ 36.513978305819677, 69.063433336047055 ], [ 40.0, 68.019905834261891 ] ], [ [ 40.0, 66.263595012999929 ], [ 38.382959832519845, 65.999537665461887 ], [ 33.918684523257213, 66.759594631610767 ], [ 33.18446577325426, 66.632522284605059 ], [ 34.81477, 65.90015 ], [ 34.94391, 64.41437 ], [ 37.01273, 63.84983 ], [ 37.14197, 64.33471 ], [ 36.539579035089687, 64.76446 ], [ 37.17604, 65.14322 ], [ 39.59345, 64.52079 ], [ 40.0, 64.638422296502995 ] ], [ [ 40.0, 65.238480826151559 ], [ 39.7626, 65.49682 ], [ 40.0, 65.596589548034956 ] ] ] } }
]
}
